OBJECT_NAME,OBJECT_ID,EPOCH,MEAN_MOTION,ECCENTRICITY,INCLINATION,RA_OF_ASC_NODE,ARG_OF_PERICENTER,MEAN_ANOMALY,EPHEMERIS_TYPE,CLASSIFICATION_TYPE,NORAD_CAT_ID,ELEMENT_SET_NO,REV_AT_EPOCH,BSTAR,MEAN_MOTION_DOT,MEAN_MOTION_DDOT,OBJECT_TYPE
NEXTSAT-1,2018-099BF,2026-03-21T13:26:36.850272,15.08131934,.00106444,97.4178,126.3276,278.4228,81.5794,0,U,43811,999,39867,.1891205E-3,.2862E-4,0,Active
GLOBAL-2,2018-099BG,2026-03-21T13:50:01.037760,15.08129557,.00076883,97.3672,120.7184,95.9290,264.2815,0,U,43812,999,39870,.2656657E-3,.4044E-4,0,Active
FALCONSAT-6,2018-099BK,2026-03-21T10:45:09.178560,15.26633950,.00142963,97.3853,157.4114,250.8126,169.8640,0,U,43815,999,40034,.17898716E-3,.4629E-4,0,Active
EXCITE,2018-099BP,2026-03-21T14:10:48.333216,15.06099770,.00170359,97.4080,122.7941,293.0177,66.9253,0,U,43819,999,39856,.23846218E-3,.3435E-4,0,Active
SEAHAWK-1,2018-099BQ,2026-03-21T13:36:59.997312,15.21251094,.00070347,97.4065,134.4382,251.3958,108.6514,0,U,43820,999,39920,.59512534E-3,.13246E-3,0,Active
GEO-KOMPSAT-2A,2018-100A,2026-03-21T13:58:14.417184,1.00273482,.0001293,0.0474,12.9275,28.4861,115.4884,0,U,43823,999,2675,0,-.342E-5,0,Active
GSAT-11,2018-100B,2026-03-21T13:42:45.902304,1.00271518,.00055668,0.0441,267.6533,151.5891,39.5241,0,U,43824,999,2659,0,-.75E-6,0,Active
SAUDISAT 5A,2018-102A,2026-03-21T14:02:07.684224,15.27085549,.00115394,97.3159,143.8717,86.6137,273.6422,0,U,43831,999,40230,.33871489E-3,.8946E-4,0,Active
SAUDISAT 5B,2018-102C,2026-03-21T14:52:24.674592,15.27389412,.00122746,97.3257,146.8188,88.3650,271.8995,0,U,43833,999,40242,.30884657E-3,.8227E-4,0,Active
GSAT-7A,2018-105A,2026-03-21T13:39:38.701152,1.00274498,.00018255,0.0597,283.4275,66.6036,96.7690,0,U,43864,999,2656,0,.27E-6,0,Active
COSMOS 2533,2018-107A,2026-03-20T03:34:21.909216,1.00272458,.00002319,0.0175,128.2214,341.5679,191.4802,0,U,43867,999,2654,0,-.36E-6,0,Active
HONGYUN 1,2018-108A,2026-03-21T13:31:46.158816,13.50806209,.00110052,99.7746,103.9435,233.4428,126.5694,0,U,43871,999,35725,.14142492E-3,.47E-6,0,Active
NAVSTAR 77 (USA 289),2018-109A,2026-03-21T06:40:38.203680,2.00557419,.00379472,55.6262,95.6531,198.6955,171.5965,0,U,43873,999,5331,0,.4E-6,0,Active
TJS-3,2018-110A,2026-03-20T18:40:34.010688,1.00344497,.0017323,2.3156,81.5555,346.2895,121.9368,0,U,43874,999,2653,0,-.251E-5,0,Active
KANOPUS-V 5,2018-111A,2026-03-21T03:20:29.177376,15.22502550,.00015767,97.3636,347.4316,92.1516,267.9901,0,U,43876,999,40138,.5126761E-5,.51E-6,0,Active
KANOPUS-V 6,2018-111B,2026-03-21T15:10:46.311744,15.38700670,.00017681,97.3735,356.9959,94.3030,265.8417,0,U,43877,999,40204,.67021616E-3,.25601E-3,0,Active
ISAT,2018-111D,2026-03-21T12:34:10.064640,15.52539758,.00023751,97.5910,9.9311,232.0436,128.0602,0,U,43879,999,39751,.12965989E-2,.80115E-3,0,Active
UWE-4,2018-111E,2026-03-21T13:30:31.564512,15.40740023,.00059406,97.5857,5.2891,285.2431,74.8158,0,U,43880,999,39726,.1051498E-2,.43109E-3,0,Active
D-STAR ONE (SPARROW),2018-111F,2026-03-21T09:10:33.999744,15.56568209,.00014427,97.6122,14.2727,29.9247,330.2090,0,U,43881,999,39764,.14956414E-2,.107381E-2,0,Active
GRUS-1A,2018-111Q,2026-03-21T14:04:41.858976,14.98932465,.00111452,97.4649,311.4773,92.6246,267.6254,0,U,43890,999,39458,.13642279E-3,.1596E-4,0,Active
YUNHAI-2 01A,2018-112A,2026-03-21T14:51:53.229312,14.28980037,.00003682,50.0091,55.9138,277.3473,82.7401,0,U,43909,999,37856,.24295566E-4,-.1E-5,0,Active
YUNHAI-2 01B,2018-112B,2026-03-21T13:40:05.035008,14.28973564,.00050193,50.0098,119.7594,273.4214,86.6128,0,U,43910,999,37771,.7913086E-4,.4E-6,0,Active
YUNHAI-2 01C,2018-112C,2026-03-21T14:17:37.159008,14.28957003,.00004729,50.0134,359.2188,196.1527,163.9374,0,U,43911,999,37926,.57325151E-4,-.16E-6,0,Active
YUNHAI-2 01D,2018-112D,2026-03-21T15:23:40.562880,14.28992674,.0015725,50.0107,299.0505,38.3029,321.9000,0,U,43912,999,37506,.12463911E-3,.156E-5,0,Active
YUNHAI-2 01E,2018-112E,2026-03-21T14:20:02.876064,14.28972939,.00049143,50.0063,178.5596,60.0022,300.1381,0,U,43913,999,37663,.11956835E-3,.143E-5,0,Active
HONGYAN 1 (CHONGQING),2018-112F,2026-03-21T13:24:25.283808,13.43815204,.0006439,50.0069,199.3194,350.4454,9.6301,0,U,43914,999,35475,-.17576115E-3,-.231E-5,0,Active
YUNHAI-2 01F,2018-112G,2026-03-21T13:09:11.906208,14.28987776,.00069538,50.0100,239.6545,22.9493,337.1732,0,U,43915,999,37577,.16305258E-4,-.12E-5,0,Active
ZHONGXING-2D,2019-001A,2026-03-21T13:58:44.370336,1.00272289,.00007966,0.0119,240.4322,54.1059,224.2570,0,U,43920,999,5320,0,-.335E-5,0,Active
IRIDIUM 180,2019-002A,2026-03-21T13:50:06.936288,14.34218803,.000223,86.3995,30.1975,83.6355,276.5095,0,U,43922,999,37643,.71327163E-4,.22E-5,0,Active
IRIDIUM 176,2019-002B,2026-03-21T08:16:22.548288,14.72262971,.0002579,86.6117,30.2499,88.6098,271.5415,0,U,43923,999,38632,.14450683E-3,.936E-5,0,Active
IRIDIUM 168,2019-002C,2026-03-21T08:39:34.951680,14.34218980,.00021701,86.3997,30.3625,85.3613,274.7831,0,U,43924,999,37638,.8609474E-4,.261E-5,0,Active
IRIDIUM 173,2019-002D,2026-03-21T13:22:42.841920,14.34217814,.00020657,86.3994,30.1729,85.1335,275.0096,0,U,43925,999,37639,.86204108E-4,.261E-5,0,Active
IRIDIUM 169,2019-002E,2026-03-21T11:20:55.193856,14.38609263,.00015835,86.4186,61.8544,101.0733,259.0643,0,U,43926,999,37761,.58308965E-4,.198E-5,0,Active
IRIDIUM 172,2019-002F,2026-03-21T13:13:34.939776,14.34217701,.00022953,86.3994,30.1831,82.2465,277.8991,0,U,43927,999,37640,.3229561E-4,.11E-5,0,Active
IRIDIUM 175,2019-002G,2026-03-20T03:16:24.281760,14.52281057,.00035547,86.3620,327.7639,109.6658,250.4932,0,U,43928,999,38613,.94158113E-4,.403E-5,0,Active
IRIDIUM 171,2019-002H,2026-03-21T09:25:14.988576,14.34217873,.00022298,86.4003,30.5459,90.4581,269.6870,0,U,43929,999,37637,.1273351E-4,.55E-6,0,Active
IRIDIUM 170,2019-002J,2026-03-21T08:25:18.148800,14.72259710,.00026184,86.6116,30.2504,85.7075,274.4442,0,U,43930,999,38633,.14810223E-3,.959E-5,0,Active
IRIDIUM 167,2019-002K,2026-03-21T14:17:30.990048,14.34217921,.00021313,86.3995,30.1861,95.5078,264.6361,0,U,43931,999,37640,.23309356E-4,.85E-6,0,Active
JILIN-1 09,2019-005B,2026-03-21T13:33:01.215360,15.19647573,.00032951,97.4702,176.3525,63.1586,296.9986,0,U,43943,999,39583,.3572354E-3,.7551E-4,0,Active
JILIN-1 10,2019-005E,2026-03-21T13:00:13.505472,15.24626039,.00075573,97.4735,179.4459,217.5572,142.5139,0,U,43946,999,39595,.39620515E-3,.9716E-4,0,Active
HELLAS-SAT 4 & SGS-1,2019-007A,2026-03-21T04:59:23.641728,1.00271045,.00031311,0.0659,124.9562,23.3748,144.2744,0,U,44034,999,2648,0,.155E-5,0,Active
GSAT-31,2019-007B,2026-03-21T13:35:16.619712,1.00270904,.00043614,0.0193,108.4936,199.8396,122.4246,0,U,44035,999,2608,0,.127E-5,0,Active
EGYPTSAT-A (MISRSAT-A),2019-008A,2026-03-21T14:36:56.490624,14.72309328,.00011317,98.0123,146.6582,93.4258,266.7079,0,U,44047,999,38035,.10827083E-3,.635E-5,0,Active
NUSANTARA SATU,2019-009A,2026-03-21T09:55:38.459712,1.00270426,.00018925,0.0280,140.4801,308.8879,24.4689,0,U,44048,999,2589,0,-.233E-5,0,Active
ONEWEB-0012,2019-010A,2026-03-21T11:26:26.016864,13.16595054,.00014785,87.9015,246.2232,110.1326,249.9964,0,U,44057,999,34002,.20134165E-4,.21E-6,0,Active
ONEWEB-0010,2019-010B,2026-03-21T12:02:54.922848,13.16594214,.00020948,87.9016,246.2136,97.7415,262.3954,0,U,44058,999,34007,-.53978714E-4,-.8E-7,0,Active
ONEWEB-0008,2019-010C,2026-03-21T09:00:31.396896,13.16594625,.00015716,87.9017,246.2361,91.7369,268.3942,0,U,44059,999,34017,.16993351E-3,.78E-6,0,Active
ONEWEB-0007,2019-010D,2026-03-21T13:39:11.458368,13.15547246,.00018123,87.8930,276.7142,104.3189,255.8142,0,U,44060,999,33985,-.51966092E-3,-.183E-5,0,Active
ONEWEB-0006,2019-010E,2026-03-21T13:44:54.174336,13.15547827,.00018945,87.8936,276.6697,95.1414,264.9933,0,U,44061,999,33990,-.40798517E-3,-.141E-5,0,Active
ONEWEB-0011,2019-010F,2026-03-21T12:59:15.550944,13.15548116,.00018159,87.8940,276.6845,86.5748,273.5590,0,U,44062,999,33989,.2355154E-3,.101E-5,0,Active
S5,2019-009D,2026-03-21T08:52:53.747328,0.99340846,.00030055,6.3394,71.8774,176.5786,201.5176,0,U,44065,999,2557,0,-.308E-5,0,Active
ZHONGXING-6C,2019-012A,2026-03-20T20:11:50.994816,1.00267897,.00095202,0.0807,70.8844,323.2079,217.6310,0,U,44067,999,2585,0,-.333E-5,0,Active
WGS 10 (USA 291),2019-014A,2026-03-19T16:24:57.168000,1.00270278,.00006003,0.0223,169.3802,146.8267,167.5502,0,U,44071,999,2572,0,0,0,Active
PRISMA,2019-015A,2026-03-21T14:26:15.458784,14.83648960,.00014445,97.8697,156.6586,84.0351,276.1028,0,U,44072,999,37906,.45446173E-4,.322E-5,0,Active
TIANLIAN 2-01,2019-017A,2026-03-21T13:43:38.317728,1.00271037,.00026618,0.3127,82.3956,233.2404,146.3669,0,U,44076,999,2577,0,-.105E-5,0,Active
EMISAT,2019-018A,2026-03-21T14:35:15.456192,14.43632273,.00196718,98.4747,139.8513,119.8267,240.4882,0,U,44078,999,36742,.15216834E-3,.473E-5,0,Active
O3B FM20,2019-020A,2026-03-21T11:02:25.900800,5.00115462,.00027317,0.0525,0.2934,347.9941,11.7048,0,U,44112,999,12718,0,-.15E-6,0,Active
O3B FM19,2019-020B,2026-03-21T11:41:28.244544,5.00115989,.00041336,0.0582,352.9607,0.3865,6.6459,0,U,44113,999,12704,0,-.15E-6,0,Active
O3B FM17,2019-020C,2026-03-21T08:48:55.409472,5.00115487,.00026519,0.0373,344.1825,8.8600,6.9525,0,U,44114,999,12713,0,-.14E-6,0,Active
O3B FM18,2019-020D,2026-03-21T12:19:25.555008,5.00114929,.00035773,0.0527,0.7521,340.7529,18.4806,0,U,44115,999,12726,0,-.15E-6,0,Active
ARABSAT-6A,2019-021A,2026-03-21T13:30:24.586848,1.00270896,.00027963,0.0219,10.8321,331.8858,69.4263,0,U,44186,999,2527,0,0,0,Active
BEIDOU-3 IGSO-1,2019-023A,2026-03-20T21:20:29.820192,1.00265493,.00252464,58.5776,38.5583,236.4312,342.2562,0,U,44204,999,632,0,-.209E-5,0,Active
TIANHUI 2-01A,2019-024A,2026-03-21T13:09:02.035008,15.16738821,.00013479,97.4822,85.6447,88.6243,271.5144,0,U,44207,999,8885,.1081686E-3,.2054E-4,0,Active
TIANHUI 2-01B,2019-024C,2026-03-21T13:09:02.148192,15.16738871,.00018932,97.4822,85.6421,79.4915,280.6531,0,U,44209,999,38142,.10974368E-3,.2085E-4,0,Active
